[Satellite]
VERSION=1.1
NAME=TURKSAT 4A
NICKNAME=TURKSAT 4A
TLE1=1 39522U 14007A   17186.09651556  .00000141  00000-0  00000-0 0  9999
TLE2=2 39522   0.0617 271.0343 0000733 231.7991 217.1642  1.00272076 12430
